IRIDIUM 126             
1 42809U 17039G   25127.79355298 -.00000028  00000+0 -16912-4 0  9992
2 42809  86.3999 163.0928 0002003  95.6524 264.4900 14.34217306411848
IRIDIUM 124             
1 42810U 17039H   25127.39765705  .00000583  00000+0  16721-3 0  9999
2 42810  86.4454 100.0255 0002571  92.3935 267.7561 14.43280939416588
IRIDIUM 128             
1 42811U 17039J   25127.92382946  .00000328  00000+0  11013-3 0  9997
2 42811  86.4024 194.4980 0002673 100.3178 259.8319 14.34218077411892
IRIDIUM 121             
1 42812U 17039K   25127.81257617  .00000153  00000+0  47694-4 0  9993
2 42812  86.3996 163.1098 0002487  91.9830 268.1651 14.34216424411724
IRIDIUM 133             
1 42955U 17061A   25127.67646788 -.00000031  00000+0 -18037-4 0  9997
2 42955  86.4029 194.7084 0002237  97.6580 262.4870 14.34217188396655
IRIDIUM 100             
1 42956U 17061B   25127.67012467  .00000113  00000+0  33313-4 0  9992
2 42956  86.4025 194.6397 0002307 101.0471 259.0984 14.34217417396658
IRIDIUM 122             
1 42957U 17061C   25127.91748659 -.00000015  00000+0 -12257-4 0  9996
2 42957  86.4026 194.5351 0002201  98.6511 261.4934 14.34216986396694
IRIDIUM 129             
1 42958U 17061D   25127.94285622  .00000021  00000+0  36605-6 0  9996
2 42958  86.4024 194.5874 0002086  85.6189 274.5245 14.34217474396717
